STARLINK-32360          
1 61007U 24158T   26068.37780534 -.00003624  00000+0 -11030-3 0  9997
2 61007  53.1605  51.6751 0001040  81.4572 278.6547 15.30200889 85742
KUIPER-00222            
1 67782U 26030U   26068.67636257  .00055223  00000+0  17317-2 0  9992
2 67782  51.8817 219.7147 0012800  40.1845 320.0084 15.32445377  5087
